NORAD_CAT_ID,OBJECT_NAME,OBJECT_TYPE,EPOCH,MEAN_MOTION,ECCENTRICITY,INCLINATION,RA_OF_ASC_NODE,ARG_OF_PERICENTER,MEAN_ANOMALY,BSTAR,MEAN_MOTION_DOT,MEAN_MOTION_DDOT,TLE_LINE0,TLE_LINE1,TLE_LINE2,SEMIMAJOR_AXIS,PERIOD,APOGEE,PERIGEE,DECAYED
55922.0,STARLINK-5863,PAYLOAD,2024-08-09 12:31:38,14.9833209,0.0003082,70.0041,319.6798,248.7267,111.3563,-7.7483e-06,-1.85e-06,0.0,0 STARLINK-5863,1 55922U 23037J   24222.52196917 -.00000185  00000-0 -77483-5 0  9990,2 55922  70.0041 319.6798 0003082 248.7267 111.3563 14.98332090 77372,6950.186,96.107,574.193,569.909,0.0
55922.0,STARLINK-5863,PAYLOAD,2024-08-09 14:07:46,14.98332022,0.0003022,70.0036,319.511,255.4797,104.6027,-0.00010061,-1.293e-05,0.0,0 STARLINK-5863,1 55922U 23037J   24222.58872970 -.00001293  00000-0 -10061-3 0  9994,2 55922  70.0036 319.5110 0003022 255.4797 104.6027 14.98332022 77049,6950.187,96.107,574.152,569.951,0.0
55922.0,STARLINK-5863,PAYLOAD,2024-08-09 17:20:02,14.98336425,0.0003017,70.0034,319.1765,237.5468,122.5399,-1.0589e-06,-1.06e-06,0.0,0 STARLINK-5863,1 55922U 23037J   24222.72225029 -.00000106  00000-0 -10589-5 0  9996,2 55922  70.0034 319.1765 0003017 237.5468 122.5399 14.98336425 77063,6950.173,96.107,574.135,569.941,0.0
55922.0,STARLINK-5863,PAYLOAD,2024-08-10 12:33:39,14.98326437,0.0002867,70.0035,317.1562,242.3363,117.7506,4.7015e-05,4.68e-06,0.0,0 STARLINK-5863,1 55922U 23037J   24223.52337527  .00000468  00000-0  47015-4 0  9994,2 55922  70.0035 317.1562 0002867 242.3363 117.7506 14.98326437 77526,6950.204,96.107,574.062,570.076,0.0
55922.0,STARLINK-5863,PAYLOAD,2024-08-10 14:09:47,14.98328506,0.0002938,70.0035,316.9884,246.2479,113.8372,6.2068e-05,6.48e-06,0.0,0 STARLINK-5863,1 55922U 23037J   24223.59013355  .00000648  00000-0  62068-4 0  9996,2 55922  70.0035 316.9884 0002938 246.2479 113.8372 14.98328506 77190,6950.198,96.107,574.104,570.021,0.0
55922.0,STARLINK-5863,PAYLOAD,2024-08-10 15:45:55,14.98329803,0.0002983,70.0018,316.8171,261.9689,98.1131,2.3892e-05,1.92e-06,0.0,0 STARLINK-5863,1 55922U 23037J   24223.65689469  .00000192  00000-0  23892-4 0  9994,2 55922  70.0018 316.8171 0002983 261.9689  98.1131 14.98329803 77207,6950.194,96.107,574.132,569.985,0.0
55922.0,STARLINK-5863,PAYLOAD,2024-08-11 12:35:40,14.9833639,0.0003414,70.0014,314.6306,267.3856,92.6912,0.00014278,1.611e-05,0.0,0 STARLINK-5863,1 55922U 23037J   24224.52476988  .00001611  00000-0  14278-3 0  9995,2 55922  70.0014 314.6306 0003414 267.3856  92.6912 14.98336390 77671,6950.173,96.107,574.411,569.665,0.0
55922.0,STARLINK-5863,PAYLOAD,2024-08-12 09:25:24,14.98339882,0.000295,70.0029,312.44,264.7484,95.3339,0.0003652,4.268e-05,0.0,0 STARLINK-5863,1 55922U 23037J   24225.39264788  .00004268  00000-0  36520-3 0  9999,2 55922  70.0029 312.4400 0002950 264.7484  95.3339 14.98339882 77469,6950.162,96.106,574.078,569.977,0.0
55922.0,STARLINK-5863,PAYLOAD,2024-08-13 12:39:42,14.9831478,0.0002964,70.0012,309.579,269.3655,90.7164,-0.00038689,-4.704e-05,0.0,0 STARLINK-5863,1 55922U 23037J   24226.52757783 -.00004704  00000-0 -38689-3 0  9992,2 55922  70.0012 309.5790 0002964 269.3655  90.7164 14.98314780 77977,6950.24,96.108,574.165,570.045,0.0
55922.0,STARLINK-5863,PAYLOAD,2024-08-13 22:16:31,14.98315559,0.0002801,70.0023,308.5695,267.7606,92.3232,-0.00033225,-4.053e-05,0.0,0 STARLINK-5863,1 55922U 23037J   24226.92814066 -.00004053  00000-0 -33225-3 0  9992,2 55922  70.0023 308.5695 0002801 267.7606  92.3232 14.98315559 77698,6950.238,96.108,574.049,570.156,0.0
55922.0,STARLINK-5863,PAYLOAD,2024-08-14 06:17:11,14.98321157,0.0002953,70.001,307.726,271.0974,88.9847,-0.00019708,-2.443e-05,0.0,0 STARLINK-5863,1 55922U 23037J   24227.26194024 -.00002443  00000-0 -19708-3 0  9996,2 55922  70.0010 307.7260 0002953 271.0974  88.9847 14.98321157 78085,6950.22,96.108,574.138,570.033,0.0
55922.0,STARLINK-5863,PAYLOAD,2024-08-14 14:17:52,14.98322295,0.0002601,70.0018,306.8847,265.3472,94.739,0.00013612,1.531e-05,0.0,0 STARLINK-5863,1 55922U 23037J   24227.59574267  .00001531  00000-0  13612-3 0  9996,2 55922  70.0018 306.8847 0002601 265.3472  94.7390 14.98322295 77792,6950.217,96.107,573.889,570.274,0.0
55922.0,STARLINK-5863,PAYLOAD,2024-08-14 22:18:32,14.9832646,0.000276,70.0019,306.0432,270.653,89.4312,0.00069825,8.247e-05,0.0,0 STARLINK-5863,1 55922U 23037J   24227.92954602  .00008247  00000-0  69825-3 0  9996,2 55922  70.0019 306.0432 0002760 270.6530  89.4312 14.98326460 77844,6950.204,96.107,573.987,570.151,0.0
55922.0,STARLINK-5863,PAYLOAD,2024-08-15 11:07:36,14.98352066,0.0002761,70.0021,304.6966,271.9389,88.1454,0.00112,0.00013304,0.0,0 STARLINK-5863,1 55922U 23037J   24228.46361999  .00013304  00000-0  11200-2 0  9990,2 55922  70.0021 304.6966 0002761 271.9389  88.1454 14.98352066 77923,6950.125,96.106,573.909,570.071,0.0
55922.0,STARLINK-5863,PAYLOAD,2024-08-15 22:20:32,14.983479,0.0002852,70.002,303.5185,269.071,91.0122,0.00047685,5.604e-05,0.0,0 STARLINK-5863,1 55922U 23037J   24228.93093625  .00005604  00000-0  47685-3 0  9991,2 55922  70.0020 303.5185 0002852 269.0710  91.0122 14.98347900 77993,6950.138,96.106,573.985,570.02,0.0
55922.0,STARLINK-5863,PAYLOAD,2024-08-16 09:33:29,14.98336832,0.0002782,70.002,302.3406,270.0723,90.0117,0.00018711,2.141e-05,0.0,0 STARLINK-5863,1 55922U 23037J   24229.39825831  .00002141  00000-0  18711-3 0  9995,2 55922  70.0020 302.3406 0002782 270.0723  90.0117 14.98336832 78406,6950.172,96.107,573.97,570.103,0.0
55922.0,STARLINK-5863,PAYLOAD,2024-08-17 04:47:07,14.98313453,0.0002957,70.0022,300.3208,269.8993,90.1827,-0.0003224,-3.936e-05,0.0,0 STARLINK-5863,1 55922U 23037J   24230.19939388 -.00003936  00000-0 -32240-3 0  9996,2 55922  70.0022 300.3208 0002957 269.8993  90.1827 14.98313453 78521,6950.244,96.108,574.164,570.054,0.0
55922.0,STARLINK-5863,PAYLOAD,2024-08-17 07:59:23,14.98333678,0.000288,70.0018,299.9849,263.9256,96.1575,9.5646e-05,1.049e-05,0.0,0 STARLINK-5863,1 55922U 23037J   24230.33290841  .00001049  00000-0  95646-4 0  9997,2 55922  70.0018 299.9849 0002880 263.9256  96.1575 14.98333678 78541,6950.182,96.107,574.048,570.045,0.0
55922.0,STARLINK-5863,PAYLOAD,2024-08-18 04:49:07,14.98340912,0.0002911,70.0008,297.7947,262.1454,97.9374,0.00044174,5.183e-05,0.0,0 STARLINK-5863,1 55922U 23037J   24231.20078323  .00005183  00000-0  44174-3 0  9995,2 55922  70.0008 297.7947 0002911 262.1454  97.9374 14.98340912 78333,6950.159,96.106,574.047,570.001,0.0
55922.0,STARLINK-5863,PAYLOAD,2024-08-18 12:49:47,14.98351443,0.0002847,70.0021,296.9547,262.0091,98.0745,0.00076055,8.998e-05,0.0,0 STARLINK-5863,1 55922U 23037J   24231.53457744  .00008998  00000-0  76055-3 0  9999,2 55922  70.0021 296.9547 0002847 262.0091  98.0745 14.98351443 78727,6950.127,96.106,573.97,570.013,0.0
55922.0,STARLINK-5863,PAYLOAD,2024-08-18 14:25:55,14.98355974,0.0003164,70.0012,296.7849,272.9259,87.1538,0.0008179,9.686e-05,0.0,0 STARLINK-5863,1 55922U 23037J   24231.60133325  .00009686  00000-0  81790-3 0  9990,2 55922  70.0012 296.7849 0003164 272.9259  87.1538 14.98355974 78394,6950.113,96.105,574.177,569.779,0.0
55922.0,STARLINK-5863,PAYLOAD,2024-08-19 04:51:08,14.98342864,0.0003206,70.0016,295.2718,277.3331,82.7463,6.7991e-05,7.19e-06,0.0,0 STARLINK-5863,1 55922U 23037J   24232.20217728  .00000719  00000-0  67991-4 0  9993,2 55922  70.0016 295.2718 0003206 277.3331  82.7463 14.98342864 78824,6950.153,96.106,574.246,569.79,0.0
55922.0,STARLINK-5863,PAYLOAD,2024-08-19 14:27:56,14.98341982,0.0003027,70.0009,294.2607,269.7054,90.3758,-1.2988e-05,-2.48e-06,0.0,0 STARLINK-5863,1 55922U 23037J   24232.60273360 -.00000248  00000-0 -12988-4 0  9996,2 55922  70.0009 294.2607 0003027 269.7054  90.3758 14.98341982 78541,6950.156,96.106,574.125,569.917,0.0
55922.0,STARLINK-5863,PAYLOAD,2024-08-20 04:53:08,14.98332856,0.0002987,70.0007,292.7458,271.8464,88.2353,0.0004891,5.748e-05,0.0,0 STARLINK-5863,1 55922U 23037J   24233.20357558  .00005748  00000-0  48910-3 0  9996,2 55922  70.0007 292.7458 0002987 271.8464  88.2353 14.98332856 78973,6950.184,96.107,574.125,569.973,0.0
55922.0,STARLINK-5863,PAYLOAD,2024-08-20 14:29:57,14.98332532,0.0002953,70.0004,291.7336,275.4579,84.6243,-0.00016117,-2.016e-05,0.0,0 STARLINK-5863,1 55922U 23037J   24233.60413452 -.00002016  00000-0 -16117-3 0  9997,2 55922  70.0004 291.7336 0002953 275.4579  84.6243 14.98332532 78692,6950.185,96.107,574.102,569.998,0.0
55922.0,STARLINK-5863,PAYLOAD,2024-08-21 04:55:09,14.98328975,0.0003093,69.9998,290.2202,271.2504,88.8301,4.817e-05,4.82e-06,0.0,0 STARLINK-5863,1 55922U 23037J   24234.20497657  .00000482  00000-0  48170-4 0  9991,2 55922  69.9998 290.2202 0003093 271.2504  88.8301 14.98328975 79121,6950.196,96.107,574.211,569.911,0.0
55922.0,STARLINK-5863,PAYLOAD,2024-08-21 12:55:50,14.98331534,0.0003038,69.9989,289.3783,270.7845,89.2966,7.9237e-05,8.53e-06,0.0,0 STARLINK-5863,1 55922U 23037J   24234.53877635  .00000853  00000-0  79237-4 0  9995,2 55922  69.9989 289.3783 0003038 270.7845  89.2966 14.98331534 78839,6950.188,96.107,574.165,569.942,0.0
55922.0,STARLINK-5863,PAYLOAD,2024-08-21 20:56:30,14.98335449,0.0003052,69.9989,288.5369,268.8397,91.2412,0.00010179,1.122e-05,0.0,0 STARLINK-5863,1 55922U 23037J   24234.87257265  .00001122  00000-0  10179-3 0  9992,2 55922  69.9989 288.5369 0003052 268.8397  91.2412 14.98335449 78889,6950.176,96.107,574.162,569.92,0.0
